*******************************************************************************
Ephemeris / WWW_USER Mon Jul 15 19:27:07 2024 Pasadena, USA      / Horizons    
*******************************************************************************
Target body name: (2018 RA1)                      {source: JPL#6}
Center body name: Earth (399)                     {source: DE441}
Center-site name: Gemini South Obs., Cerro Pachon
*******************************************************************************
Start time      : A.D. 2018-Nov-27 23:36:00.0000 UT      
Stop  time      : A.D. 2018-Nov-28 09:25:00.0000 UT      
Step-size       : 1 minutes
*******************************************************************************
Target pole/equ : undefined
Target radii    : undefined                                                    
Center geodetic : 289.2634, -30.2406227, 2.71233  {E-lon(deg),Lat(deg),Alt(km)}
Center cylindric: 289.2634,5517.21435,-3194.81213 {E-lon(deg),Dxy(km),Dz(km)}
Center pole/equ : ITRF93                          {East-longitude positive}
Center radii    : 6378.137, 6378.137, 6356.752 km {Equator_a, b, pole_c}       
Target primary  : Sun
Vis. interferer : MOON (R_eq= 1737.400) km        {source: DE441}
Rel. light bend : Sun                             {source: DE441}
Rel. lght bnd GM: 1.3271E+11 km^3/s^2                                          
Small-body perts: Yes                             {source: SB441-N16}
Atmos refraction: NO (AIRLESS)
RA format       : HMS
Time format     : CAL 
Calendar mode   : Mixed Julian/Gregorian
RTS-only print  : NO       
EOP file        : eop.240715.p241008                                           
EOP coverage    : DATA-BASED 1962-JAN-20 TO 2024-JUL-15. PREDICTS-> 2024-OCT-07
Units conversion: 1 au= 149597870.700 km, c= 299792.458 km/s, 1 day= 86400.0 s 
Table cut-offs 1: Elevation (-90.0deg=NO ),Airmass (>38.000=NO), Daylight (YES)
Table cut-offs 2: Solar elongation (  0.0,180.0=NO ),Local Hour Angle( 0.0=NO )
Table cut-offs 3: RA/DEC angular rate (     0.0=NO )                           
*******************************************************************************
Initial IAU76/J2000 heliocentric ecliptic osculating elements (au, days, deg.):
  EPOCH=  2458369.5 ! 2018-Sep-08.00 (TDB)         Residual RMS= .21275        
   EC= .3232115344739424   QR= .7703453101153647   TP= 2458436.6763547547      
   OM= 166.2054176892707   W=  269.7217787981747   IN= 8.763099478405824       
  Equivalent ICRF heliocentric cartesian coordinates (au, au/d):
   X= 9.899686155013647E-01  Y=-2.468208982240139E-01  Z=-1.030323866474361E-01
  VX=-9.411283005844916E-04 VY= 1.717513364149167E-02 VZ= 4.613440841260365E-03
Asteroid physical parameters (km, seconds, rotational period in hours):        
   GM= n.a.                RAD= n.a.               ROTPER= n.a.                
   H= 26.4                 G= .150                 B-V= n.a.                   
                           ALBEDO= n.a.            STYP= n.a.                  
*******************************************************************************
 Date__(UT)__HR:MN     R.A._________(ICRF)_________DEC
******************************************************
$$SOE
 2018-Nov-28 01:39     12 31 26.457055 -15 39 22.62371
 2018-Nov-28 01:40     12 31 26.585782 -15 39 22.71481
 2018-Nov-28 01:41     12 31 26.714505 -15 39 22.80599
 2018-Nov-28 01:42     12 31 26.843224 -15 39 22.89724
 2018-Nov-28 01:43     12 31 26.971940 -15 39 22.98856
 2018-Nov-28 01:44     12 31 27.100652 -15 39 23.07995
 2018-Nov-28 01:45     12 31 27.229360 -15 39 23.17142
 2018-Nov-28 01:46     12 31 27.358064 -15 39 23.26296
 2018-Nov-28 01:47     12 31 27.486763 -15 39 23.35458
 2018-Nov-28 01:48     12 31 27.615459 -15 39 23.44626
 2018-Nov-28 01:49     12 31 27.744150 -15 39 23.53802
 2018-Nov-28 01:50     12 31 27.872837 -15 39 23.62986
 2018-Nov-28 01:51     12 31 28.001519 -15 39 23.72176
 2018-Nov-28 01:52     12 31 28.130197 -15 39 23.81374
 2018-Nov-28 01:53     12 31 28.258870 -15 39 23.90579
 2018-Nov-28 01:54     12 31 28.387539 -15 39 23.99791
 2018-Nov-28 01:55     12 31 28.516203 -15 39 24.09011
 2018-Nov-28 01:56     12 31 28.644862 -15 39 24.18238
 2018-Nov-28 01:57     12 31 28.773516 -15 39 24.27472
 2018-Nov-28 01:58     12 31 28.902165 -15 39 24.36713
 2018-Nov-28 01:59     12 31 29.030810 -15 39 24.45962
 2018-Nov-28 02:00     12 31 29.159449 -15 39 24.55217
 2018-Nov-28 02:01     12 31 29.288083 -15 39 24.64480
 2018-Nov-28 02:02     12 31 29.416711 -15 39 24.73750
 2018-Nov-28 02:03     12 31 29.545335 -15 39 24.83027
 2018-Nov-28 02:04     12 31 29.673953 -15 39 24.92311
 2018-Nov-28 02:05     12 31 29.802565 -15 39 25.01603
 2018-Nov-28 02:06     12 31 29.931172 -15 39 25.10901
 2018-Nov-28 02:07     12 31 30.059774 -15 39 25.20207
 2018-Nov-28 02:08     12 31 30.188369 -15 39 25.29520
 2018-Nov-28 02:09     12 31 30.316959 -15 39 25.38840
 2018-Nov-28 02:10     12 31 30.445543 -15 39 25.48167
 2018-Nov-28 02:11     12 31 30.574121 -15 39 25.57501
 2018-Nov-28 02:12     12 31 30.702693 -15 39 25.66842
 2018-Nov-28 02:13     12 31 30.831259 -15 39 25.76190
 2018-Nov-28 02:14     12 31 30.959819 -15 39 25.85545
 2018-Nov-28 02:15     12 31 31.088373 -15 39 25.94908
 2018-Nov-28 02:16     12 31 31.216920 -15 39 26.04277
 2018-Nov-28 02:17     12 31 31.345461 -15 39 26.13653
 2018-Nov-28 02:18     12 31 31.473996 -15 39 26.23036
 2018-Nov-28 02:19     12 31 31.602524 -15 39 26.32427
 2018-Nov-28 02:20     12 31 31.731045 -15 39 26.41824
 2018-Nov-28 02:21     12 31 31.859560 -15 39 26.51228
 2018-Nov-28 02:22     12 31 31.988068 -15 39 26.60639
 2018-Nov-28 02:23     12 31 32.116569 -15 39 26.70057
 2018-Nov-28 02:24     12 31 32.245064 -15 39 26.79482
 2018-Nov-28 02:25     12 31 32.373551 -15 39 26.88914
 2018-Nov-28 02:26     12 31 32.502032 -15 39 26.98353
 2018-Nov-28 02:27     12 31 32.630506 -15 39 27.07799
 2018-Nov-28 02:28     12 31 32.758972 -15 39 27.17252
 2018-Nov-28 02:29     12 31 32.887431 -15 39 27.26711
 2018-Nov-28 02:30     12 31 33.015883 -15 39 27.36177
 2018-Nov-28 02:31     12 31 33.144327 -15 39 27.45650
 2018-Nov-28 02:32     12 31 33.272764 -15 39 27.55130
 2018-Nov-28 02:33     12 31 33.401194 -15 39 27.64617
 2018-Nov-28 02:34     12 31 33.529616 -15 39 27.74111
 2018-Nov-28 02:35     12 31 33.658030 -15 39 27.83611
 2018-Nov-28 02:36     12 31 33.786437 -15 39 27.93118
 2018-Nov-28 02:37     12 31 33.914835 -15 39 28.02632
 2018-Nov-28 02:38     12 31 34.043226 -15 39 28.12152
 2018-Nov-28 02:39     12 31 34.171609 -15 39 28.21680
 2018-Nov-28 02:40     12 31 34.299984 -15 39 28.31214
 2018-Nov-28 02:41     12 31 34.428351 -15 39 28.40754
 2018-Nov-28 02:42     12 31 34.556710 -15 39 28.50302
 2018-Nov-28 02:43     12 31 34.685061 -15 39 28.59856
 2018-Nov-28 02:44     12 31 34.813403 -15 39 28.69416
 2018-Nov-28 02:45     12 31 34.941737 -15 39 28.78984
 2018-Nov-28 02:46     12 31 35.070063 -15 39 28.88558
 2018-Nov-28 02:47     12 31 35.198380 -15 39 28.98138
 2018-Nov-28 02:48     12 31 35.326689 -15 39 29.07725
 2018-Nov-28 02:49     12 31 35.454989 -15 39 29.17319
 2018-Nov-28 02:50     12 31 35.583280 -15 39 29.26919
 2018-Nov-28 02:51     12 31 35.711563 -15 39 29.36526
 2018-Nov-28 02:52     12 31 35.839837 -15 39 29.46139
 2018-Nov-28 02:53     12 31 35.968102 -15 39 29.55759
 2018-Nov-28 02:54     12 31 36.096358 -15 39 29.65385
 2018-Nov-28 02:55     12 31 36.224605 -15 39 29.75018
 2018-Nov-28 02:56     12 31 36.352843 -15 39 29.84657
 2018-Nov-28 02:57     12 31 36.481072 -15 39 29.94303
 2018-Nov-28 02:58     12 31 36.609291 -15 39 30.03955
 2018-Nov-28 02:59     12 31 36.737502 -15 39 30.13614
 2018-Nov-28 03:00     12 31 36.865703 -15 39 30.23279
 2018-Nov-28 03:01     12 31 36.993894 -15 39 30.32950
 2018-Nov-28 03:02     12 31 37.122076 -15 39 30.42628
 2018-Nov-28 03:03     12 31 37.250249 -15 39 30.52311
 2018-Nov-28 03:04     12 31 37.378412 -15 39 30.62002
 2018-Nov-28 03:05     12 31 37.506565 -15 39 30.71698
 2018-Nov-28 03:06     12 31 37.634709 -15 39 30.81401
 2018-Nov-28 03:07     12 31 37.762843 -15 39 30.91110
 2018-Nov-28 03:08     12 31 37.890967 -15 39 31.00826
 2018-Nov-28 03:09     12 31 38.019081 -15 39 31.10547
 2018-Nov-28 03:10     12 31 38.147185 -15 39 31.20275
 2018-Nov-28 03:11     12 31 38.275279 -15 39 31.30009
 2018-Nov-28 03:12     12 31 38.403362 -15 39 31.39750
 2018-Nov-28 03:13     12 31 38.531436 -15 39 31.49496
 2018-Nov-28 03:14     12 31 38.659500 -15 39 31.59249
 2018-Nov-28 03:15     12 31 38.787553 -15 39 31.69007
 2018-Nov-28 03:16     12 31 38.915595 -15 39 31.78772
 2018-Nov-28 03:17     12 31 39.043628 -15 39 31.88543
 2018-Nov-28 03:18     12 31 39.171650 -15 39 31.98320
 2018-Nov-28 03:19     12 31 39.299661 -15 39 32.08103
 2018-Nov-28 03:20     12 31 39.427662 -15 39 32.17892
 2018-Nov-28 03:21     12 31 39.555652 -15 39 32.27687
 2018-Nov-28 03:22     12 31 39.683631 -15 39 32.37488
 2018-Nov-28 03:23     12 31 39.811600 -15 39 32.47295
 2018-Nov-28 03:24     12 31 39.939557 -15 39 32.57108
 2018-Nov-28 03:25     12 31 40.067504 -15 39 32.66927
 2018-Nov-28 03:26     12 31 40.195440 -15 39 32.76752
 2018-Nov-28 03:27     12 31 40.323364 -15 39 32.86582
 2018-Nov-28 03:28     12 31 40.451278 -15 39 32.96419
 2018-Nov-28 03:29     12 31 40.579180 -15 39 33.06261
 2018-Nov-28 03:30     12 31 40.707072 -15 39 33.16110
 2018-Nov-28 03:31     12 31 40.834952 -15 39 33.25964
 2018-Nov-28 03:32     12 31 40.962820 -15 39 33.35824
 2018-Nov-28 03:33     12 31 41.090677 -15 39 33.45689
 2018-Nov-28 03:34     12 31 41.218523 -15 39 33.55561
 2018-Nov-28 03:35     12 31 41.346357 -15 39 33.65438
 2018-Nov-28 03:36     12 31 41.474180 -15 39 33.75321
 2018-Nov-28 03:37     12 31 41.601991 -15 39 33.85210
 2018-Nov-28 03:38     12 31 41.729790 -15 39 33.95104
 2018-Nov-28 03:39     12 31 41.857578 -15 39 34.05004
 2018-Nov-28 03:40     12 31 41.985354 -15 39 34.14909
 2018-Nov-28 03:41     12 31 42.113118 -15 39 34.24820
